TIANQI-6                
1 46810U 20076D   26115.80123961  .00003995  00000+0  26424-3 0  9995
2 46810  35.0004   9.8858 0009417  63.9920 296.1759 15.06823073300671
KSM1-C                  
1 46906U 20081B   26115.82607207  .00009993  00000+0  38457-3 0  9992
2 46906  36.8946  21.9800 0000845 177.8392 182.2361 15.25854576301169
KSM1-D                  
1 46907U 20081C   26115.82610647  .00008588  00000+0  35021-3 0  9998
2 46907  36.8978  30.0126 0003651 194.8911 165.1730 15.23973798301101
KSM1-A                  
1 46912U 20081H   26115.80335596  .00009315  00000+0  36653-3 0  9990
2 46912  36.8976  24.1314 0004052 261.3151  98.7139 15.25134635301172
R2                      
1 46913U 20081J   26115.80755425  .00008440  00000+0  33715-3 0  9992
2 46913  36.8998  23.8302 0007089 210.4527 149.5810 15.24659397303983
KSM1-B                  
1 46914U 20081K   26115.82253847  .00008768  00000+0  35951-3 0  9993
2 46914  36.9031  30.5174 0005710 210.8846 149.1567 15.23774198304197
GONETS-M 20             
1 47227U 20091A   26115.84414061 -.00000093  00000+0 -74404-3 0  9992
2 47227  82.5061 334.9832 0020220 296.6660  63.2349 12.42891688244577
GONETS-M 21             
1 47228U 20091B   26115.81771478 -.00000037  00000+0 -34106-3 0  9991
2 47228  82.4983 333.7387 0014211 312.3226  47.6649 12.42883275244560
GONETS-M 22             
1 47229U 20091C   26115.79103230 -.00000016  00000+0 -18235-3 0  9996
2 47229  82.5042 334.6295 0021016 291.7805  68.1039 12.42889704244519
CUBEL                   
1 47448U 21006AM  26115.68046082  .00009052  00000+0  22764-3 0  9994
2 47448  97.2384 166.7940 0006824  18.7908 341.3589 15.40150160291679
ASTROCAST-0103          
1 47487U 21006CC  26115.73434133  .00766928  25975-3  18605-2 0  9993
2 47487  97.2488 187.6708 0002604 266.6314  93.4665 15.96342065292958
ARKTIKA-M 1             
1 47719U 21016A   26113.16409645 -.00000101  00000+0  00000+0 0  9997
2 47719  63.2246  65.5569 7266494 269.6808  14.9538  2.00609676 37686
STARLINK-2342           
1 47883U 21021Z   26115.10442689  .00058355  00000+0  96860-3 0  9992
2 47883  53.1578  46.4677 0004406 112.9157 247.2318 15.51566944283618
GRUS-1B                 
1 47934U 21022C   26115.83981900  .00001445  00000+0  12406-3 0  9996
2 47934  97.5472   0.7417 0017958 130.1164 230.1636 14.98870369278056
2021-022F               
1 47937U 21022F   26115.82232935  .00008676  00000+0  28124-3 0  9992
2 47937  97.3939  16.5845 0007867 281.1259  78.9098 15.32206999281690
UNISAT-7                
1 47945U 21022P   26115.71405227  .00013611  00000+0  35354-3 0  9993
2 47945  97.3930  20.1370 0007181 260.6242  99.4192 15.39054493281787
2021-022X               
1 47953U 21022X   26115.85591209  .00075408  00000+0  74447-3 0  9991
2 47953  97.3943  29.9418 0003615 192.1503 167.9670 15.65669178282297
