[{"OBJECT_NAME":"TIANQI-6","OBJECT_ID":"2020-076D","EPOCH":"2026-04-25T19:13:47.102304","MEAN_MOTION":15.06823073,"ECCENTRICITY":0.0009417,"INCLINATION":35.0004,"RA_OF_ASC_NODE":9.8858,"ARG_OF_PERICENTER":63.992,"MEAN_ANOMALY":296.1759,"EPHEMERIS_TYPE":0,"CLASSIFICATION_TYPE":"U","NORAD_CAT_ID":46810,"ELEMENT_SET_NO":999,"REV_AT_EPOCH":30067,"BSTAR":0.00026424,"MEAN_MOTION_DOT":3.995e-5,"MEAN_MOTION_DDOT":0},{"OBJECT_NAME":"KSM1-C","OBJECT_ID":"2020-081B","EPOCH":"2026-04-25T19:49:32.626848","MEAN_MOTION":15.25854576,"ECCENTRICITY":8.45e-5,"INCLINATION":36.8946,"RA_OF_ASC_NODE":21.98,"ARG_OF_PERICENTER":177.8392,"MEAN_ANOMALY":182.2361,"EPHEMERIS_TYPE":0,"CLASSIFICATION_TYPE":"U","NORAD_CAT_ID":46906,"ELEMENT_SET_NO":999,"REV_AT_EPOCH":30116,"BSTAR":0.00038457,"MEAN_MOTION_DOT":9.993e-5,"MEAN_MOTION_DDOT":0},{"OBJECT_NAME":"KSM1-D","OBJECT_ID":"2020-081C","EPOCH":"2026-04-25T19:49:35.599008","MEAN_MOTION":15.23973798,"ECCENTRICITY":0.0003651,"INCLINATION":36.8978,"RA_OF_ASC_NODE":30.0126,"ARG_OF_PERICENTER":194.8911,"MEAN_ANOMALY":165.173,"EPHEMERIS_TYPE":0,"CLASSIFICATION_TYPE":"U","NORAD_CAT_ID":46907,"ELEMENT_SET_NO":999,"REV_AT_EPOCH":30110,"BSTAR":0.00035021,"MEAN_MOTION_DOT":8.588e-5,"MEAN_MOTION_DDOT":0},{"OBJECT_NAME":"KSM1-A","OBJECT_ID":"2020-081H","EPOCH":"2026-04-25T19:16:49.954944","MEAN_MOTION":15.25134635,"ECCENTRICITY":0.0004052,"INCLINATION":36.8976,"RA_OF_ASC_NODE":24.1314,"ARG_OF_PERICENTER":261.3151,"MEAN_ANOMALY":98.7139,"EPHEMERIS_TYPE":0,"CLASSIFICATION_TYPE":"U","NORAD_CAT_ID":46912,"ELEMENT_SET_NO":999,"REV_AT_EPOCH":30117,"BSTAR":0.00036653,"MEAN_MOTION_DOT":9.315e-5,"MEAN_MOTION_DDOT":0},{"OBJECT_NAME":"R2","OBJECT_ID":"2020-081J","EPOCH":"2026-04-25T19:22:52.687200","MEAN_MOTION":15.24659397,"ECCENTRICITY":0.0007089,"INCLINATION":36.8998,"RA_OF_ASC_NODE":23.8302,"ARG_OF_PERICENTER":210.4527,"MEAN_ANOMALY":149.581,"EPHEMERIS_TYPE":0,"CLASSIFICATION_TYPE":"U","NORAD_CAT_ID":46913,"ELEMENT_SET_NO":999,"REV_AT_EPOCH":30398,"BSTAR":0.00033715,"MEAN_MOTION_DOT":8.44e-5,"MEAN_MOTION_DDOT":0},{"OBJECT_NAME":"KSM1-B","OBJECT_ID":"2020-081K","EPOCH":"2026-04-25T19:44:27.323808","MEAN_MOTION":15.23774198,"ECCENTRICITY":0.000571,"INCLINATION":36.9031,"RA_OF_ASC_NODE":30.5174,"ARG_OF_PERICENTER":210.8846,"MEAN_ANOMALY":149.1567,"EPHEMERIS_TYPE":0,"CLASSIFICATION_TYPE":"U","NORAD_CAT_ID":46914,"ELEMENT_SET_NO":999,"REV_AT_EPOCH":30419,"BSTAR":0.00035951,"MEAN_MOTION_DOT":8.768e-5,"MEAN_MOTION_DDOT":0},{"OBJECT_NAME":"GONETS-M 20","OBJECT_ID":"2020-091A","EPOCH":"2026-04-25T20:15:33.748704","MEAN_MOTION":12.42891688,"ECCENTRICITY":0.002022,"INCLINATION":82.5061,"RA_OF_ASC_NODE":334.9832,"ARG_OF_PERICENTER":296.666,"MEAN_ANOMALY":63.2349,"EPHEMERIS_TYPE":0,"CLASSIFICATION_TYPE":"U","NORAD_CAT_ID":47227,"ELEMENT_SET_NO":999,"REV_AT_EPOCH":24457,"BSTAR":-0.00074404,"MEAN_MOTION_DOT":-9.3e-7,"MEAN_MOTION_DDOT":0},{"OBJECT_NAME":"GONETS-M 21","OBJECT_ID":"2020-091B","EPOCH":"2026-04-25T19:37:30.556992","MEAN_MOTION":12.42883275,"ECCENTRICITY":0.0014211,"INCLINATION":82.4983,"RA_OF_ASC_NODE":333.7387,"ARG_OF_PERICENTER":312.3226,"MEAN_ANOMALY":47.6649,"EPHEMERIS_TYPE":0,"CLASSIFICATION_TYPE":"U","NORAD_CAT_ID":47228,"ELEMENT_SET_NO":999,"REV_AT_EPOCH":24456,"BSTAR":-0.00034106,"MEAN_MOTION_DOT":-3.7e-7,"MEAN_MOTION_DDOT":0},{"OBJECT_NAME":"GONETS-M 22","OBJECT_ID":"2020-091C","EPOCH":"2026-04-25T18:59:05.190720","MEAN_MOTION":12.42889704,"ECCENTRICITY":0.0021016,"INCLINATION":82.5042,"RA_OF_ASC_NODE":334.6295,"ARG_OF_PERICENTER":291.7805,"MEAN_ANOMALY":68.1039,"EPHEMERIS_TYPE":0,"CLASSIFICATION_TYPE":"U","NORAD_CAT_ID":47229,"ELEMENT_SET_NO":999,"REV_AT_EPOCH":24451,"BSTAR":-0.00018235,"MEAN_MOTION_DOT":-1.6e-7,"MEAN_MOTION_DDOT":0},{"OBJECT_NAME":"CUBEL","OBJECT_ID":"2021-006AM","EPOCH":"2026-04-25T16:19:51.814848","MEAN_MOTION":15.4015016,"ECCENTRICITY":0.0006824,"INCLINATION":97.2384,"RA_OF_ASC_NODE":166.794,"ARG_OF_PERICENTER":18.7908,"MEAN_ANOMALY":341.3589,"EPHEMERIS_TYPE":0,"CLASSIFICATION_TYPE":"U","NORAD_CAT_ID":47448,"ELEMENT_SET_NO":999,"REV_AT_EPOCH":29167,"BSTAR":0.00022764,"MEAN_MOTION_DOT":9.052e-5,"MEAN_MOTION_DDOT":0},{"OBJECT_NAME":"ASTROCAST-0103","OBJECT_ID":"2021-006CC","EPOCH":"2026-04-25T17:37:27.090912","MEAN_MOTION":15.96342065,"ECCENTRICITY":0.0002604,"INCLINATION":97.2488,"RA_OF_ASC_NODE":187.6708,"ARG_OF_PERICENTER":266.6314,"MEAN_ANOMALY":93.4665,"EPHEMERIS_TYPE":0,"CLASSIFICATION_TYPE":"U","NORAD_CAT_ID":47487,"ELEMENT_SET_NO":999,"REV_AT_EPOCH":29295,"BSTAR":0.0018605,"MEAN_MOTION_DOT":0.00766928,"MEAN_MOTION_DDOT":0.00025975},{"OBJECT_NAME":"ARKTIKA-M 1","OBJECT_ID":"2021-016A","EPOCH":"2026-04-23T03:56:17.933280","MEAN_MOTION":2.00609676,"ECCENTRICITY":0.72664948,"INCLINATION":63.2246,"RA_OF_ASC_NODE":65.5569,"ARG_OF_PERICENTER":269.6808,"MEAN_ANOMALY":14.9538,"EPHEMERIS_TYPE":0,"CLASSIFICATION_TYPE":"U","NORAD_CAT_ID":47719,"ELEMENT_SET_NO":999,"REV_AT_EPOCH":3768,"BSTAR":0,"MEAN_MOTION_DOT":-1.01e-6,"MEAN_MOTION_DDOT":0},{"OBJECT_NAME":"STARLINK-2342","OBJECT_ID":"2021-021Z","EPOCH":"2026-04-25T02:30:22.483296","MEAN_MOTION":15.51566944,"ECCENTRICITY":0.00044061,"INCLINATION":53.1578,"RA_OF_ASC_NODE":46.4677,"ARG_OF_PERICENTER":112.9157,"MEAN_ANOMALY":247.2318,"EPHEMERIS_TYPE":0,"CLASSIFICATION_TYPE":"U","NORAD_CAT_ID":47883,"ELEMENT_SET_NO":999,"REV_AT_EPOCH":28361,"BSTAR":0.00096860361,"MEAN_MOTION_DOT":0.00058355,"MEAN_MOTION_DDOT":0},{"OBJECT_NAME":"GRUS-1B","OBJECT_ID":"2021-022C","EPOCH":"2026-04-25T20:09:20.361600","MEAN_MOTION":14.98870369,"ECCENTRICITY":0.0017958,"INCLINATION":97.5472,"RA_OF_ASC_NODE":0.7417,"ARG_OF_PERICENTER":130.1164,"MEAN_ANOMALY":230.1636,"EPHEMERIS_TYPE":0,"CLASSIFICATION_TYPE":"U","NORAD_CAT_ID":47934,"ELEMENT_SET_NO":999,"REV_AT_EPOCH":27805,"BSTAR":0.00012406,"MEAN_MOTION_DOT":1.445e-5,"MEAN_MOTION_DDOT":0},{"OBJECT_NAME":"2021-022F","OBJECT_ID":"2021-022F","EPOCH":"2026-04-25T19:44:09.255840","MEAN_MOTION":15.32206999,"ECCENTRICITY":0.0007867,"INCLINATION":97.3939,"RA_OF_ASC_NODE":16.5845,"ARG_OF_PERICENTER":281.1259,"MEAN_ANOMALY":78.9098,"EPHEMERIS_TYPE":0,"CLASSIFICATION_TYPE":"U","NORAD_CAT_ID":47937,"ELEMENT_SET_NO":999,"REV_AT_EPOCH":28169,"BSTAR":0.00028124,"MEAN_MOTION_DOT":8.676e-5,"MEAN_MOTION_DDOT":0},{"OBJECT_NAME":"UNISAT-7","OBJECT_ID":"2021-022P","EPOCH":"2026-04-25T17:08:14.116128","MEAN_MOTION":15.39054493,"ECCENTRICITY":0.0007181,"INCLINATION":97.393,"RA_OF_ASC_NODE":20.137,"ARG_OF_PERICENTER":260.6242,"MEAN_ANOMALY":99.4192,"EPHEMERIS_TYPE":0,"CLASSIFICATION_TYPE":"U","NORAD_CAT_ID":47945,"ELEMENT_SET_NO":999,"REV_AT_EPOCH":28178,"BSTAR":0.00035354,"MEAN_MOTION_DOT":0.00013611,"MEAN_MOTION_DDOT":0},{"OBJECT_NAME":"2021-022X","OBJECT_ID":"2021-022X","EPOCH":"2026-04-25T20:32:30.804576","MEAN_MOTION":15.65669178,"ECCENTRICITY":0.0003615,"INCLINATION":97.3943,"RA_OF_ASC_NODE":29.9418,"ARG_OF_PERICENTER":192.1503,"MEAN_ANOMALY":167.967,"EPHEMERIS_TYPE":0,"CLASSIFICATION_TYPE":"U","NORAD_CAT_ID":47953,"ELEMENT_SET_NO":999,"REV_AT_EPOCH":28229,"BSTAR":0.00074447,"MEAN_MOTION_DOT":0.00075408,"MEAN_MOTION_DDOT":0}]
